{
"type": "FeatureCollection",
"name": "SlopeSafe_Top30_Targets",
"crs": { "type": "name", "properties": { "name": "urn:ogc:def:crs:OGC:1.3:CRS84" } },
"features": [
{ "type": "Feature", "properties": { "x": 711250.0, "y": 4801250.0, "log_density": -20.681587548745064, "ssi": 99.973608347882561, "class_id": 5, "class_name": "Очень высокая", "local_mean_ssi_2km": 99.921197924132926, "known_objects_3km": 11, "nearest_known_km": 0.72496356517621841, "known_density_score": 100.0, "priority_score": 99.961843968575295, "rank": 1, "target_id": "T01", "priority_class": "Критический приоритет", "distance_almaty_km": 59.087218671996098, "longitude": 77.605882421285131, "latitude": 43.334414823442089 }, "geometry": { "type": "Point", "coordinates": [ 77.605882421285131, 43.334414823442089 ] } },
{ "type": "Feature", "properties": { "x": 639250.0, "y": 4774750.0, "log_density": -20.854202608385982, "ssi": 99.504648991026841, "class_id": 5, "class_name": "Очень высокая", "local_mean_ssi_2km": 99.350483625989256, "known_objects_3km": 11, "nearest_known_km": 0.5876828400581755, "known_density_score": 100.0, "priority_score": 99.53270203286155, "rank": 2, "target_id": "T02", "priority_class": "Критический приоритет", "distance_almaty_km": 20.158756895400487, "longitude": 76.711527698459435, "latitude": 43.112684619577145 }, "geometry": { "type": "Point", "coordinates": [ 76.711527698459435, 43.112684619577145 ] } },
{ "type": "Feature", "properties": { "x": 708750.0, "y": 4800250.0, "log_density": -20.708613218858456, "ssi": 99.910674408217957, "class_id": 5, "class_name": "Очень высокая", "local_mean_ssi_2km": 99.863152861940591, "known_objects_3km": 10, "nearest_known_km": 1.9228083238571785, "known_density_score": 90.909090909090907, "priority_score": 98.546180419465699, "rank": 3, "target_id": "T03", "priority_class": "Критический приоритет", "distance_almaty_km": 56.43674547101962, "longitude": 77.574694075675652, "latitude": 43.326117598257881 }, "geometry": { "type": "Point", "coordinates": [ 77.574694075675652, 43.326117598257881 ] } },
{ "type": "Feature", "properties": { "x": 712750.0, "y": 4799250.0, "log_density": -20.720569847160519, "ssi": 99.882252629014559, "class_id": 5, "class_name": "Очень высокая", "local_mean_ssi_2km": 99.822218870901324, "known_objects_3km": 10, "nearest_known_km": 0.51745371987201505, "known_density_score": 90.909090909090907, "priority_score": 98.518268243592047, "rank": 4, "target_id": "T04", "priority_class": "Критический приоритет", "distance_almaty_km": 60.185737127448114, "longitude": 77.623591871869294, "latitude": 43.316001667782594 }, "geometry": { "type": "Point", "coordinates": [ 77.623591871869294, 43.316001667782594 ] } },
{ "type": "Feature", "properties": { "x": 642750.0, "y": 4775750.0, "log_density": -20.856071687417671, "ssi": 99.498558609768978, "class_id": 5, "class_name": "Очень высокая", "local_mean_ssi_2km": 99.345014712206691, "known_objects_3km": 10, "nearest_known_km": 0.25091647767100828, "known_density_score": 90.909090909090907, "priority_score": 98.164075285398596, "rank": 5, "target_id": "T05", "priority_class": "Критический приоритет", "distance_almaty_km": 17.079479879226806, "longitude": 76.754784084823655, "latitude": 43.121033878340938 }, "geometry": { "type": "Point", "coordinates": [ 76.754784084823655, 43.121033878340938 ] } },
{ "type": "Feature", "properties": { "x": 713250.0, "y": 4796750.0, "log_density": -20.855386787052971, "ssi": 99.500588736854922, "class_id": 5, "class_name": "Очень высокая", "local_mean_ssi_2km": 99.329685181149472, "known_objects_3km": 10, "nearest_known_km": 0.98703691307060126, "known_density_score": 90.909090909090907, "priority_score": 98.160592995978689, "rank": 6, "target_id": "T06", "priority_class": "Критический приоритет", "distance_almaty_km": 60.309907202936635, "longitude": 77.628781564425296, "latitude": 43.29337233983405 }, "geometry": { "type": "Point", "coordinates": [ 77.628781564425296, 43.29337233983405 ] } },
{ "type": "Feature", "properties": { "x": 645250.0, "y": 4776250.0, "log_density": -20.949908588166839, "ssi": 99.027569125827284, "class_id": 5, "class_name": "Очень высокая", "local_mean_ssi_2km": 98.8631702630299, "known_objects_3km": 10, "nearest_known_km": 0.065326057926415396, "known_density_score": 90.909090909090907, "priority_score": 97.760477734477618, "rank": 7, "target_id": "T07", "priority_class": "Критический приоритет", "distance_almaty_km": 15.214473253862936, "longitude": 76.785632283525231, "latitude": 43.125058802154783 }, "geometry": { "type": "Point", "coordinates": [ 76.785632283525231, 43.125058802154783 ] } },
{ "type": "Feature", "properties": { "x": 662250.0, "y": 4788750.0, "log_density": -21.057974600881774, "ssi": 98.420561127126561, "class_id": 5, "class_name": "Очень высокая", "local_mean_ssi_2km": 98.202384612133855, "known_objects_3km": 10, "nearest_known_km": 1.4274519964654022, "known_density_score": 90.909090909090907, "priority_score": 97.228387639923412, "rank": 8, "target_id": "T08", "priority_class": "Критический приоритет", "distance_almaty_km": 8.8261025297462368, "longitude": 76.998170595820682, "latitude": 43.234099131177125 }, "geometry": { "type": "Point", "coordinates": [ 76.998170595820682, 43.234099131177125 ] } },
{ "type": "Feature", "properties": { "x": 706250.0, "y": 4801750.0, "log_density": -20.892086264963456, "ssi": 99.325997807462755, "class_id": 5, "class_name": "Очень высокая", "local_mean_ssi_2km": 99.161226064180198, "known_objects_3km": 9, "nearest_known_km": 0.12922284819504379, "known_density_score": 81.818181818181827, "priority_score": 96.650393886085851, "rank": 9, "target_id": "T09", "priority_class": "Критический приоритет", "distance_almaty_km": 54.318699416031606, "longitude": 77.544453088300713, "latitude": 43.340300834181718 }, "geometry": { "type": "Point", "coordinates": [ 77.544453088300713, 43.340300834181718 ] } },
{ "type": "Feature", "properties": { "x": 640750.0, "y": 4777250.0, "log_density": -20.930130113499452, "ssi": 99.129075480125039, "class_id": 5, "class_name": "Очень высокая", "local_mean_ssi_2km": 98.91748652037046, "known_objects_3km": 9, "nearest_known_km": 1.3356563642785551, "known_density_score": 81.818181818181827, "priority_score": 96.46896474290719, "rank": 10, "target_id": "T10", "priority_class": "Критический приоритет", "distance_almaty_km": 17.340515880623766, "longitude": 76.730590418454966, "latitude": 43.134909372390858 }, "geometry": { "type": "Point", "coordinates": [ 76.730590418454966, 43.134909372390858 ] } },
{ "type": "Feature", "properties": { "x": 710750.0, "y": 4797250.0, "log_density": -20.786219776893876, "ssi": 99.725932843395995, "class_id": 5, "class_name": "Очень высокая", "local_mean_ssi_2km": 99.619289024635819, "known_objects_3km": 8, "nearest_known_km": 1.3110789549255082, "known_density_score": 72.727272727272734, "priority_score": 95.644140680349452, "rank": 11, "target_id": "T11", "priority_class": "Очень высокий приоритет", "distance_almaty_km": 57.899538500296345, "longitude": 77.598186382386686, "latitude": 43.298573889901057 }, "geometry": { "type": "Point", "coordinates": [ 77.598186382386686, 43.298573889901057 ] } },
{ "type": "Feature", "properties": { "x": 708750.0, "y": 4802750.0, "log_density": -20.794072522599439, "ssi": 99.699541191278556, "class_id": 5, "class_name": "Очень высокая", "local_mean_ssi_2km": 99.581048059322782, "known_objects_3km": 8, "nearest_known_km": 0.21959250870240662, "known_density_score": 72.727272727272734, "priority_score": 95.618152982090947, "rank": 12, "target_id": "T12", "priority_class": "Очень высокий приоритет", "distance_almaty_km": 56.984333612676593, "longitude": 77.575645064220922, "latitude": 43.348606216075353 }, "geometry": { "type": "Point", "coordinates": [ 77.575645064220922, 43.348606216075353 ] } },
{ "type": "Feature", "properties": { "x": 713250.0, "y": 4809750.0, "log_density": -21.186228520622063, "ssi": 97.429859109180242, "class_id": 5, "class_name": "Очень высокая", "local_mean_ssi_2km": 97.184959492749968, "known_objects_3km": 9, "nearest_known_km": 1.2804222487984909, "known_density_score": 81.818181818181827, "priority_score": 95.014637630601413, "rank": 13, "target_id": "T13", "priority_class": "Очень высокий приоритет", "distance_almaty_km": 63.290968581715624, "longitude": 77.633836992274098, "latitude": 43.410307636412099 }, "geometry": { "type": "Point", "coordinates": [ 77.633836992274098, 43.410307636412099 ] } },
{ "type": "Feature", "properties": { "x": 641750.0, "y": 4773250.0, "log_density": -20.970238871682103, "ssi": 98.928092898615446, "class_id": 5, "class_name": "Очень высокая", "local_mean_ssi_2km": 98.660530434919494, "known_objects_3km": 8, "nearest_known_km": 1.7744440305945699, "known_density_score": 72.727272727272734, "priority_score": 94.917701133805252, "rank": 14, "target_id": "T14", "priority_class": "Очень высокий приоритет", "distance_almaty_km": 19.671314462417545, "longitude": 76.741858564309453, "latitude": 43.098719838102795 }, "geometry": { "type": "Point", "coordinates": [ 76.741858564309453, 43.098719838102795 ] } },
{ "type": "Feature", "properties": { "x": 703250.0, "y": 4795750.0, "log_density": -21.009980388934629, "ssi": 98.700718664988443, "class_id": 5, "class_name": "Очень высокая", "local_mean_ssi_2km": 98.579076764491177, "known_objects_3km": 8, "nearest_known_km": 1.3724064196725991, "known_density_score": 72.727272727272734, "priority_score": 94.7682092041819, "rank": 15, "target_id": "T15", "priority_class": "Очень высокий приоритет", "distance_almaty_km": 50.264717926240337, "longitude": 77.505258286913758, "latitude": 43.28714216773075 }, "geometry": { "type": "Point", "coordinates": [ 77.505258286913758, 43.28714216773075 ] } },
{ "type": "Feature", "properties": { "x": 636750.0, "y": 4775250.0, "log_density": -20.945560542251581, "ssi": 99.043810142514914, "class_id": 5, "class_name": "Очень высокая", "local_mean_ssi_2km": 98.876552529331192, "known_objects_3km": 7, "nearest_known_km": 1.7164634374946444, "known_density_score": 63.636363636363633, "priority_score": 93.682515882637105, "rank": 16, "target_id": "T16", "priority_class": "Очень высокий приоритет", "distance_almaty_km": 21.666728670667556, "longitude": 76.680936370132883, "latitude": 43.117640542739608 }, "geometry": { "type": "Point", "coordinates": [ 76.680936370132883, 43.117640542739608 ] } },
{ "type": "Feature", "properties": { "x": 660250.0, "y": 4790250.0, "log_density": -21.208923851460838, "ssi": 97.249177798530184, "class_id": 5, "class_name": "Очень высокая", "local_mean_ssi_2km": 96.927299077493672, "known_objects_3km": 8, "nearest_known_km": 1.0223288708756437, "known_density_score": 72.727272727272734, "priority_score": 93.474328421530615, "rank": 17, "target_id": "T17", "priority_class": "Очень высокий приоритет", "distance_almaty_km": 6.9198947916022977, "longitude": 76.97399018677109, "latitude": 43.248025651022751 }, "geometry": { "type": "Point", "coordinates": [ 76.97399018677109, 43.248025651022751 ] } },
{ "type": "Feature", "properties": { "x": 713750.0, "y": 4806250.0, "log_density": -21.00499509929859, "ssi": 98.718989808762046, "class_id": 5, "class_name": "Очень высокая", "local_mean_ssi_2km": 98.560432740232386, "known_objects_3km": 7, "nearest_known_km": 0.86631679837173015, "known_density_score": 63.636363636363633, "priority_score": 93.409028762343397, "rank": 18, "target_id": "T18", "priority_class": "Очень высокий приоритет", "distance_almaty_km": 62.716548391123922, "longitude": 77.638638776434789, "latitude": 43.37868314952653 }, "geometry": { "type": "Point", "coordinates": [ 77.638638776434789, 43.37868314952653 ] } },
{ "type": "Feature", "properties": { "x": 703250.0, "y": 4799250.0, "log_density": -21.014419242707717, "ssi": 98.690568029558634, "class_id": 5, "class_name": "Очень высокая", "local_mean_ssi_2km": 98.488839687078681, "known_objects_3km": 7, "nearest_known_km": 1.2555996298065688, "known_density_score": 63.636363636363633, "priority_score": 93.371918867835404, "rank": 19, "target_id": "T19", "priority_class": "Очень высокий приоритет", "distance_almaty_km": 50.847744505462046, "longitude": 77.506552325381733, "latitude": 43.31862811504908 }, "geometry": { "type": "Point", "coordinates": [ 77.506552325381733, 43.31862811504908 ] } },
{ "type": "Feature", "properties": { "x": 659750.0, "y": 4785750.0, "log_density": -21.229820231979922, "ssi": 97.078647123309921, "class_id": 5, "class_name": "Очень высокая", "local_mean_ssi_2km": 96.841080823088106, "known_objects_3km": 8, "nearest_known_km": 2.3095015704893047, "known_density_score": 72.727272727272734, "priority_score": 93.354671073837807, "rank": 20, "target_id": "T20", "priority_class": "Очень высокий приоритет", "distance_almaty_km": 7.142862486274332, "longitude": 76.966531830539253, "latitude": 43.207634383278297 }, "geometry": { "type": "Point", "coordinates": [ 76.966531830539253, 43.207634383278297 ] } },
{ "type": "Feature", "properties": { "x": 713250.0, "y": 4803250.0, "log_density": -20.827169558327451, "ssi": 99.612245726582486, "class_id": 5, "class_name": "Очень высокая", "local_mean_ssi_2km": 99.474859983377812, "known_objects_3km": 6, "nearest_known_km": 1.185679993077595, "known_density_score": 54.54545454545454, "priority_score": 92.811011326451904, "rank": 21, "target_id": "T21", "priority_class": "Очень высокий приоритет", "distance_almaty_km": 61.475733467924329, "longitude": 77.631305485746665, "latitude": 43.351840347290342 }, "geometry": { "type": "Point", "coordinates": [ 77.631305485746665, 43.351840347290342 ] } },
{ "type": "Feature", "properties": { "x": 700750.0, "y": 4791250.0, "log_density": -21.306781121472117, "ssi": 96.445247472491801, "class_id": 5, "class_name": "Очень высокая", "local_mean_ssi_2km": 96.15452498754992, "known_objects_3km": 8, "nearest_known_km": 1.8272394243807226, "known_density_score": 72.727272727272734, "priority_score": 92.800334515226382, "rank": 22, "target_id": "T22", "priority_class": "Очень высокий приоритет", "distance_almaty_km": 47.369794638404727, "longitude": 77.472831338448444, "latitude": 43.247329542930849 }, "geometry": { "type": "Point", "coordinates": [ 77.472831338448444, 43.247329542930849 ] } },
{ "type": "Feature", "properties": { "x": 705750.0, "y": 4798750.0, "log_density": -20.85212289037533, "ssi": 99.522920134800444, "class_id": 5, "class_name": "Очень высокая", "local_mean_ssi_2km": 99.422159541472993, "known_objects_3km": 6, "nearest_known_km": 1.4105121076618927, "known_density_score": 54.54545454545454, "priority_score": 92.746072118400321, "rank": 23, "target_id": "T23", "priority_class": "Очень высокий приоритет", "distance_almaty_km": 53.206404403720754, "longitude": 77.537166471710648, "latitude": 43.313450670145386 }, "geometry": { "type": "Point", "coordinates": [ 77.537166471710648, 43.313450670145386 ] } },
{ "type": "Feature", "properties": { "x": 704750.0, "y": 4793750.0, "log_density": -21.130988537564061, "ssi": 97.860246051402839, "class_id": 5, "class_name": "Очень высокая", "local_mean_ssi_2km": 97.714946955679423, "known_objects_3km": 7, "nearest_known_km": 1.3890186253250729, "known_density_score": 63.636363636363633, "priority_score": 92.683073960429937, "rank": 24, "target_id": "T24", "priority_class": "Очень высокий приоритет", "distance_almaty_km": 51.532178407151669, "longitude": 77.522985798161699, "latitude": 43.268744055848515 }, "geometry": { "type": "Point", "coordinates": [ 77.522985798161699, 43.268744055848515 ] } },
{ "type": "Feature", "properties": { "x": 632750.0, "y": 4773250.0, "log_density": -21.145202387195404, "ssi": 97.750619188761206, "class_id": 5, "class_name": "Очень высокая", "local_mean_ssi_2km": 97.495527505736149, "known_objects_3km": 7, "nearest_known_km": 0.84129500933827572, "known_density_score": 63.636363636363633, "priority_score": 92.556953350994064, "rank": 25, "target_id": "T25", "priority_class": "Очень высокий приоритет", "distance_almaty_km": 26.042288140071136, "longitude": 76.631309748756536, "latitude": 43.100349648765253 }, "geometry": { "type": "Point", "coordinates": [ 76.631309748756536, 43.100349648765253 ] } },
{ "type": "Feature", "properties": { "x": 715250.0, "y": 4798750.0, "log_density": -20.919225896158157, "ssi": 99.196069673961603, "class_id": 5, "class_name": "Очень высокая", "local_mean_ssi_2km": 99.012695337585271, "known_objects_3km": 6, "nearest_known_km": 1.8842567458648003, "known_density_score": 54.54545454545454, "priority_score": 92.443465103772638, "rank": 26, "target_id": "T26", "priority_class": "Очень высокий приоритет", "distance_almaty_km": 62.571968978559518, "longitude": 77.65419322988663, "latitude": 43.310793157016448 }, "geometry": { "type": "Point", "coordinates": [ 77.65419322988663, 43.310793157016448 ] } },
{ "type": "Feature", "properties": { "x": 635250.0, "y": 4773250.0, "log_density": -21.015128401588235, "ssi": 98.68244752121484, "class_id": 5, "class_name": "Очень высокая", "local_mean_ssi_2km": 98.474711659807028, "known_objects_3km": 6, "nearest_known_km": 1.5919988687588178, "known_density_score": 54.54545454545454, "priority_score": 91.999577816428456, "rank": 27, "target_id": "T27", "priority_class": "Очень высокий приоритет", "distance_almaty_km": 24.104993827712406, "longitude": 76.662018673909358, "latitude": 43.099907631487127 }, "geometry": { "type": "Point", "coordinates": [ 76.662018673909358, 43.099907631487127 ] } },
{ "type": "Feature", "properties": { "x": 644250.0, "y": 4773750.0, "log_density": -21.017646323143072, "ssi": 98.666206504527182, "class_id": 5, "class_name": "Очень высокая", "local_mean_ssi_2km": 98.373163874344257, "known_objects_3km": 6, "nearest_known_km": 0.18349422385624767, "known_density_score": 54.54545454545454, "priority_score": 91.960180921611425, "rank": 28, "target_id": "T28", "priority_class": "Очень высокий приоритет", "distance_almaty_km": 17.867069600998228, "longitude": 76.772694771816631, "latitude": 43.102748476811954 }, "geometry": { "type": "Point", "coordinates": [ 76.772694771816631, 43.102748476811954 ] } },
{ "type": "Feature", "properties": { "x": 653250.0, "y": 4775750.0, "log_density": -21.421814859852638, "ssi": 95.422063421170165, "class_id": 5, "class_name": "Очень высокая", "local_mean_ssi_2km": 95.174056467363414, "known_objects_3km": 8, "nearest_known_km": 1.6500028841155168, "known_density_score": 72.727272727272734, "priority_score": 91.943442730943531, "rank": 29, "target_id": "T29", "priority_class": "Очень высокий приоритет", "distance_almaty_km": 13.329607930163546, "longitude": 76.883791534033577, "latitude": 43.118982095459302 }, "geometry": { "type": "Point", "coordinates": [ 76.883791534033577, 43.118982095459302 ] } },
{ "type": "Feature", "properties": { "x": 643750.0, "y": 4778250.0, "log_density": -21.030464700240536, "ssi": 98.582971294003002, "class_id": 5, "class_name": "Очень высокая", "local_mean_ssi_2km": 98.293947486826966, "known_objects_3km": 6, "nearest_known_km": 0.14615085645441547, "known_density_score": 54.54545454545454, "priority_score": 91.89063663956793, "rank": 30, "target_id": "T30", "priority_class": "Очень высокий приоритет", "distance_almaty_km": 14.524346911669008, "longitude": 76.767719225053725, "latitude": 43.143346208566591 }, "geometry": { "type": "Point", "coordinates": [ 76.767719225053725, 43.143346208566591 ] } }
]
}
